STARLINK-32482          
1 62141U 24224C   26070.26814027  .00035086  00000+0  12772-2 0  9995
2 62141  42.9939 148.9977 0000903 211.0835 148.9963 15.27612631 72563
STARLINK-32454          
1 62142U 24224D   26070.26346778  .00038374  00000+0  13953-2 0  9994
2 62142  42.9938 156.7456 0000272  38.9148 321.1723 15.27613129 72634
STARLINK-32485          
1 62143U 24224E   26070.26123200  .00034104  00000+0  12427-2 0  9990
2 62143  42.9977 152.4101 0000878 258.2210 101.8543 15.27591969 72255
STARLINK-32388          
1 62144U 24224F   26070.25960831  .00024131  00000+0  88316-3 0  9999
2 62144  42.9986 156.7150 0001055 241.8776 118.1969 15.27594836 72631
STARLINK-32374          
1 62145U 24224G   26070.22459867  .00024918  00000+0  91137-3 0  9997
2 62145  42.9963 149.5289 0000761 181.2631 178.8219 15.27601807 72717
STARLINK-32384          
1 62146U 24224H   26070.22588550  .00031894  00000+0  11627-2 0  9996
2 62146  42.9999 149.5440 0001758 263.8401  96.2250 15.27601704 72719
STARLINK-32295          
1 62147U 24224J   26070.23615436  .00020093  00000+0  73770-3 0  9999
2 62147  42.9997 149.6171 0001498 262.8595  97.2086 15.27579806 72607
STARLINK-32479          
1 62148U 24224K   26070.28099304  .00026629  00000+0  97274-3 0  9991
2 62148  42.9974 149.0952 0003529 301.1263  58.9242 15.27608974 72663
STARLINK-32468          
1 62149U 24224L   26070.27967721  .00029596  00000+0  10781-2 0  9991
2 62149  43.0029 149.0836 0002051 267.7419  92.3197 15.27657630 72560
STARLINK-32629          
1 62150U 24224M   26070.25271984  .00024849  00000+0  90878-3 0  9992
2 62150  42.9929 148.8816 0000667 177.8654 182.2201 15.27604595 72722
STARLINK-32644          
1 62151U 24224N   26070.23489500  .00028879  00000+0  10539-2 0  9998
2 62151  42.9986 149.6039 0000813 263.5547  96.5212 15.27608444 72714
STARLINK-32623          
1 62152U 24224P   26070.27151102  .00025425  00000+0  93006-3 0  9992
2 62152  42.9985 152.4886 0001020 257.7011 102.3727 15.27587211 72623
STARLINK-32639          
1 62153U 24224Q   26070.23230747  .00036737  00000+0  13369-2 0  9993
2 62153  42.9990 149.5855 0001884 264.9545  95.1091 15.27604787 72556
STARLINK-32625          
1 62154U 24224R   26070.24001925  .00031380  00000+0  11450-2 0  9997
2 62154  42.9959 149.6446 0000396 257.1969 102.8838 15.27578811 72609
STARLINK-32635          
1 62155U 24224S   26070.26731645  .00026796  00000+0  97970-3 0  9996
2 62155  42.9992 156.7727 0000940 256.5815 103.4931 15.27581649 72475
STARLINK-32532          
1 62156U 24224T   26070.27199358  .00032139  00000+0  11716-2 0  9998
2 62156  43.0007 149.0292 0001239 245.6206 114.4517 15.27601685 72567
STARLINK-32503          
1 62157U 24224U   26070.32113893  .00023786  00000+0  87096-3 0  9998
2 62157  42.9987 156.3132 0001092 254.3203 105.7528 15.27584822 72218
STARLINK-32508          
1 62158U 24224V   26070.21817149  .00041252  00000+0  14988-2 0  9999
2 62158  43.0004 149.4808 0001539 255.2129 104.8553 15.27610749 72718
STARLINK-32524          
1 62159U 24224W   26070.28307429  .00037132  00000+0  13510-2 0  9994
2 62159  43.0022 152.5734 0001063 253.3398 106.7337 15.27606166 72529
STARLINK-32484          
1 62160U 24224X   26070.23873757  .00035014  00000+0  12750-2 0  9995
2 62160  42.9955 149.6357 0000536  57.8868 302.2036 15.27602295 72714
STARLINK-32497          
1 62161U 24224Y   26070.27536514  .00028840  00000+0  10530-2 0  9990
2 62161  42.9998 152.5176 0001379 262.2458  97.8237 15.27595245 72678
STARLINK-32526          
1 62162U 24224Z   26070.27921800  .00031314  00000+0  11415-2 0  9990
2 62162  42.9954 152.5405 0001833 167.5898 192.4999 15.27610184 72673
STARLINK-32523          
1 62165U 24225C   26070.29608372  .00002799  00000+0  24221-3 0  9997
2 62165  70.0020 160.4864 0003533 269.1855  90.8899 14.98336980 70113
STARLINK-32551          
1 62166U 24225D   26070.27103416  .00051697  00000+0  43016-2 0  9998
2 62166  70.0097 160.4205 0003445 209.1476 150.9491 14.98391630 70111
STARLINK-32506          
1 62167U 24225E   26070.25002315  .00018507  00000+0  15546-2 0  9993
2 62167  70.0015 160.7034 0003318 267.1151 114.5272 14.98333687  5713
STARLINK-32562          
1 62168U 24225F   26070.28356171  .00003353  00000+0  28866-3 0  9992
2 62168  70.0023 160.4396 0003356 271.6701  88.4074 14.98334736 70115
STARLINK-32558          
1 62169U 24225G   26070.29189629 -.00002078  00000+0 -16638-3 0  9995
2 62169  70.0029 160.4713 0004945 271.8279  88.2314 14.98329199 70114
STARLINK-32538          
1 62170U 24225H   26070.23767305  .00003059  00000+0  26401-3 0  9991
2 62170  70.0021 160.6844 0003622 266.3464  93.7281 14.98335241 70109
STARLINK-32257          
1 62171U 24225J   26070.32512322  .00228515  00000+0  18322-1 0  9996
2 62171  70.0020 160.1898 0005659 274.6984  85.3529 14.98788054 70122
STARLINK-32407          
1 62172U 24225K   26070.27521343  .00003749  00000+0  32176-3 0  9999
2 62172  70.0018 160.4113 0003260 265.6947  94.3839 14.98337167 70116
STARLINK-32575          
1 62173U 24225L   26070.31873402  .00005074  00000+0  43263-3 0  9993
2 62173  70.0023 150.1609 0002967 270.2118  89.8701 14.98335838 70372
STARLINK-32552          
1 62174U 24225M   26070.25002315  .00012711  00000+0  10709-2 0  9998
2 62174  70.0013 160.4050 0003497 268.4942  23.2506 14.98337976  5759
STARLINK-32534          
1 62175U 24225N   26069.90800419  .00004360  00000+0  37371-3 0  9996
2 62175  70.0034 161.5374 0004188 312.3120  47.7684 14.98247641 70051
STARLINK-32516          
1 62176U 24225P   26070.25002315  .00015922  00000+0  13390-2 0  9996
2 62176  70.0010 160.6257 0003596 267.2957 181.8791 14.98333496  5763
STARLINK-32542          
1 62177U 24225Q   26070.28773645 -.00029644  00000+0 -24886-2 0  9991
2 62177  70.0066 160.4646 0002178 235.6271 124.4683 14.98309446 70110
STARLINK-32600          
1 62178U 24225R   26070.23530459  .00006745  00000+0  57246-3 0  9993
2 62178  70.0012 150.6684 0003503 267.5359  92.5399 14.98334596 70358
STARLINK-32584          
1 62179U 24225S   26070.27938153  .00006494  00000+0  55136-3 0  9998
2 62179  70.0034 160.3630 0002905 263.9609  96.1219 14.98343928 70119
STARLINK-32587          
1 62180U 24225T   26070.33361854  .00005455  00000+0  46444-3 0  9993
2 62180  70.0017 160.1279 0003001 265.3665  94.7151 14.98343026 70124
STARLINK-32602          
1 62181U 24225U   26070.28536859  .00005844  00000+0  49704-3 0  9991
2 62181  70.0013 150.4449 0003093 269.1577  90.9227 14.98338607 70364
STARLINK-32565          
1 62182U 24225V   26070.31692348 -.00003396  00000+0 -27695-3 0  9999
2 62182  70.0080 160.1729 0002646 246.8280 113.2600 14.98336048 70129
STARLINK-32589          
1 62183U 24225W   26070.31679084  .00004124  00000+0  35311-3 0  9994
2 62183  70.0023 160.5596 0003397 269.6161  90.4609 14.98338465 70117
STARLINK-32581          
1 62184U 24225X   26070.26867717  .00001426  00000+0  12734-3 0  9997
2 62184  70.0025 150.3834 0003368 273.3968  86.6806 14.98309310 70367
2024-226A               
1 62185U 24226A   26070.19089257 -.00000065  00000+0  91814-4 0  9992
2 62185  50.0040 275.3132 0056114 202.6450 157.1958 13.60147148 63372
2024-226B               
1 62186U 24226B   26070.24209575 -.00000043  00000+0  15241-3 0  9991
2 62186  50.0057 327.6642 0011834 135.2494 224.9340 13.41489693 62568
TJS-13                  
1 62188U 24227A   26064.22011832  .00000456  00000+0  00000+0 0  9992
2 62188  63.7054  51.3319 7004108 269.4819  17.1682  2.00612637  9161
HAISHAO-1               
1 62190U 24228A   26069.72349065  .00043433  00000+0  42076-3 0  9993
2 62190  42.9814 234.0332 0005179 336.2005  23.8621 15.65632365 72155
STARLINK-32686          
1 62192U 24229A   26069.93403039  .00044622  00000+0  16208-2 0  9999
2 62192  43.0033 260.0639 0003616 280.2711  79.7733 15.27585231 70796
STARLINK-32688          
1 62193U 24229B   26069.88615697  .00030121  00000+0  10983-2 0  9992
2 62193  43.0013 264.0211 0002288 254.3582 105.7017 15.27618022 70742
STARLINK-32684          
1 62194U 24229C   26070.25277122  .00028554  00000+0  10426-2 0  9992
2 62194  42.9979 261.6101 0000237 203.5286 156.5555 15.27596566 71988
STARLINK-32672          
1 62195U 24229D   26069.54765986  .00024468  00000+0  89531-3 0  9997
2 62195  43.0011 265.7805 0002022 258.0026 102.0599 15.27594276 70692
STARLINK-32682          
1 62196U 24229E   26069.79663707  .00027608  00000+0  10082-2 0  9996
2 62196  43.0007 231.7906 0001557 244.8477 115.2213 15.27607277 71100
STARLINK-32663          
1 62197U 24229F   26069.58106380  .00031366  00000+0  11437-2 0  9994
2 62197  42.9979 266.0257 0000972 254.0411 106.0334 15.27601758 70691
STARLINK-32640          
1 62198U 24229G   26069.93226420  .00029676  00000+0  10829-2 0  9997
2 62198  43.0022 263.5094 0002182 278.5316  81.5288 15.27599498 70753
STARLINK-32653          
1 62199U 24229H   26070.21532230  .00037313  00000+0  13571-2 0  9994
2 62199  43.0007 255.2207 0001819 269.3833  90.6810 15.27616916 70879
STARLINK-32647          
1 62200U 24229J   26069.88871541  .00029678  00000+0  10827-2 0  9995
2 62200  42.9984 264.0357 0002152 278.0808  81.9799 15.27609184 70742
STARLINK-32667          
1 62201U 24229K   26069.59119938  .00024474  00000+0  89554-3 0  9992
2 62201  43.0002 265.2445 0000872 209.3281 150.7522 15.27595100 70703
STARLINK-32655          
1 62202U 24229L   26069.90027818  .00035981  00000+0  13095-2 0  9994
2 62202  43.0021 264.1198 0002036 264.5224  95.5395 15.27609907 70741
STARLINK-32665          
1 62203U 24229M   26069.55536809  .00028846  00000+0  10530-2 0  9994
2 62203  42.9999 265.8343 0002834 279.9901  80.0630 15.27600249 70697
STARLINK-32664          
1 62204U 24229N   26070.24273756  .00125707  00000+0  38275-2 0  9992
2 62204  43.0009 261.5370 0007568 288.1371  71.8658 15.32791529 70806
